COSMOS 2251 DEB         
1 34555U 93036UR  17345.97221880  .00001302  00000-0  33823-3 0  9998
2 34555  74.0275 179.0932 0023929 239.3301 271.3193 14.50540942460770
